{
  "type": "FeatureCollection",
  "features": [
    {
      "type": "Feature",
      "properties": {
        "norad_id": 32376,
        "name": "COSMO-SKYMED 2",
        "group": "resource",
        "lat": 72.93565886422083,
        "lon": 139.81376834839926,
        "alt_km": 614.4522888045676,
        "timestamp": "2025-12-11T07:02:23.390310+00:00",
        "meta_object_name": "COSMO-SKYMED 2",
        "meta_object_id": "2007-059A",
        "meta_epoch": "2025-12-10T22:36:08.483040",
        "meta_mean_motion": 14.82162717,
        "meta_eccentricity": 0.00015258,
        "meta_inclination": 97.8812,
        "meta_ra_of_asc_node": 166.2926,
        "meta_arg_of_pericenter": 85.2408,
        "meta_mean_anomaly": 274.8979,
        "meta_ephemeris_type": 0,
        "meta_classification_type": "U",
        "meta_norad_cat_id": 32376,
        "meta_element_set_no": 999,
        "meta_rev_at_epoch": 97411,
        "meta_bstar": 0.00011934028,
        "meta_mean_motion_dot": 8.98e-06,
        "meta_mean_motion_ddot": 0,
        "tle_line1": "1 32376U 07059A   25344.94176485  .00000898  00000+0  11934-3 0  9999",
        "tle_line2": "2 32376  97.8812 166.2926 0001525  85.2408 274.8979 14.82162717974117"
      },
      "geometry": {
        "type": "Point",
        "coordinates": [
          139.81376834839926,
          72.93565886422083
        ]
      }
    },
    {
      "type": "Feature",
      "properties": {
        "norad_id": 32382,
        "name": "RADARSAT-2",
        "group": "resource",
        "lat": -63.697239290193124,
        "lon": 7.688259471552089,
        "alt_km": 799.664773138642,
        "timestamp": "2025-12-11T07:02:23.390320+00:00",
        "meta_object_name": "RADARSAT-2",
        "meta_object_id": "2007-061A",
        "meta_epoch": "2025-12-10T22:56:49.376256",
        "meta_mean_motion": 14.29980417,
        "meta_eccentricity": 0.00010985,
        "meta_inclination": 98.5799,
        "meta_ra_of_asc_node": 349.5716,
        "meta_arg_of_pericenter": 87.3124,
        "meta_mean_anomaly": 272.8184,
        "meta_ephemeris_type": 0,
        "meta_classification_type": "U",
        "meta_norad_cat_id": 32382,
        "meta_element_set_no": 999,
        "meta_rev_at_epoch": 93905,
        "meta_bstar": -3.0041339e-05,
        "meta_mean_motion_dot": -1.21e-06,
        "meta_mean_motion_ddot": 0,
        "tle_line1": "1 32382U 07061A   25344.95612704 -.00000121  00000+0 -30041-4 0  9991",
        "tle_line2": "2 32382  98.5799 349.5716 0001098  87.3124 272.8184 14.29980417939058"
      },
      "geometry": {
        "type": "Point",
        "coordinates": [
          7.688259471552089,
          -63.697239290193124
        ]
      }
    },
    {
      "type": "Feature",
      "properties": {
        "norad_id": 32783,
        "name": "CARTOSAT-2A",
        "group": "resource",
        "lat": -50.66497130993037,
        "lon": -154.45825966361332,
        "alt_km": 645.9108735462842,
        "timestamp": "2025-12-11T07:02:23.390330+00:00",
        "meta_object_name": "CARTOSAT-2A",
        "meta_object_id": "2008-021A",
        "meta_epoch": "2025-12-10T23:30:06.935616",
        "meta_mean_motion": 14.78931713,
        "meta_eccentricity": 0.00120567,
        "meta_inclination": 97.7928,
        "meta_ra_of_asc_node": 34.8572,
        "meta_arg_of_pericenter": 10.2751,
        "meta_mean_anomaly": 349.8705,
        "meta_ephemeris_type": 0,
        "meta_classification_type": "U",
        "meta_norad_cat_id": 32783,
        "meta_element_set_no": 999,
        "meta_rev_at_epoch": 95098,
        "meta_bstar": 0.00019271072,
        "meta_mean_motion_dot": 1.372e-05,
        "meta_mean_motion_ddot": 0,
        "tle_line1": "1 32783U 08021A   25344.97924694  .00001372  00000+0  19271-3 0  9997",
        "tle_line2": "2 32783  97.7928  34.8572 0012056  10.2751 349.8705 14.78931713950987"
      },
      "geometry": {
        "type": "Point",
        "coordinates": [
          -154.45825966361332,
          -50.66497130993037
        ]
      }
    },
    {
      "type": "Feature",
      "properties": {
        "norad_id": 33320,
        "name": "HUANJING 1A (HJ-1A)",
        "group": "resource",
        "lat": 72.01021252780663,
        "lon": -50.81412188250224,
        "alt_km": 600.0082228763094,
        "timestamp": "2025-12-11T07:02:23.390341+00:00",
        "meta_object_name": "HUANJING 1A (HJ-1A)",
        "meta_object_id": "2008-041A",
        "meta_epoch": "2025-12-10T22:36:56.315808",
        "meta_mean_motion": 14.83388119,
        "meta_eccentricity": 0.00203303,
        "meta_inclination": 97.6545,
        "meta_ra_of_asc_node": 333.316,
        "meta_arg_of_pericenter": 40.1729,
        "meta_mean_anomaly": 320.0984,
        "meta_ephemeris_type": 0,
        "meta_classification_type": "U",
        "meta_norad_cat_id": 33320,
        "meta_element_set_no": 999,
        "meta_rev_at_epoch": 93049,
        "meta_bstar": 0.00044796509,
        "meta_mean_motion_dot": 3.637e-05,
        "meta_mean_motion_ddot": 0,
        "tle_line1": "1 33320U 08041A   25344.94231847  .00003637  00000+0  44797-3 0  9992",
        "tle_line2": "2 33320  97.6545 333.3160 0020330  40.1729 320.0984 14.83388119930496"
      },
      "geometry": {
        "type": "Point",
        "coordinates": [
          -50.81412188250224,
          72.01021252780663
        ]
      }
    },
    {
      "type": "Feature",
      "properties": {
        "norad_id": 33321,
        "name": "HUANJING 1B (HJ-1B)",
        "group": "resource",
        "lat": -61.709341499131654,
        "lon": -8.205367947440402,
        "alt_km": 648.9379745028509,
        "timestamp": "2025-12-11T07:02:23.390352+00:00",
        "meta_object_name": "HUANJING 1B (HJ-1B)",
        "meta_object_id": "2008-041B",
        "meta_epoch": "2025-12-10T23:13:30.475776",
        "meta_mean_motion": 14.8281293,
        "meta_eccentricity": 0.00382665,
        "meta_inclination": 97.6403,
        "meta_ra_of_asc_node": 337.0415,
        "meta_arg_of_pericenter": 81.2341,
        "meta_mean_anomaly": 279.3204,
        "meta_ephemeris_type": 0,
        "meta_classification_type": "U",
        "meta_norad_cat_id": 33321,
        "meta_element_set_no": 999,
        "meta_rev_at_epoch": 93051,
        "meta_bstar": 0.00020007932,
        "meta_mean_motion_dot": 1.588e-05,
        "meta_mean_motion_ddot": 0,
        "tle_line1": "1 33321U 08041B   25344.96771384  .00001588  00000+0  20008-3 0  9992",
        "tle_line2": "2 33321  97.6403 337.0415 0038266  81.2341 279.3204 14.82812930930513"
      },
      "geometry": {
        "type": "Point",
        "coordinates": [
          -8.205367947440402,
          -61.709341499131654
        ]
      }
    },
    {
      "type": "Feature",
      "properties": {
        "norad_id": 33331,
        "name": "GEOEYE 1",
        "group": "resource",
        "lat": 17.163856385847073,
        "lon": 54.0629857120704,
        "alt_km": 678.3373382261652,
        "timestamp": "2025-12-11T07:02:23.390362+00:00",
        "meta_object_name": "GEOEYE 1",
        "meta_object_id": "2008-042A",
        "meta_epoch": "2025-12-10T21:07:27.797376",
        "meta_mean_motion": 14.64808576,
        "meta_eccentricity": 0.00027358,
        "meta_inclination": 98.1254,
        "meta_ra_of_asc_node": 56.1841,
        "meta_arg_of_pericenter": 284.7275,
        "meta_mean_anomaly": 75.3625,
        "meta_ephemeris_type": 0,
        "meta_classification_type": "U",
        "meta_norad_cat_id": 33331,
        "meta_element_set_no": 999,
        "meta_rev_at_epoch": 92258,
        "meta_bstar": 0.00018863698,
        "meta_mean_motion_dot": 9.59e-06,
        "meta_mean_motion_ddot": 0,
        "tle_line1": "1 33331U 08042A   25344.88018284  .00000959  00000+0  18864-3 0  9996",
        "tle_line2": "2 33331  98.1254  56.1841 0002735 284.7275  75.3625 14.64808576922584"
      },
      "geometry": {
        "type": "Point",
        "coordinates": [
          54.0629857120704,
          17.163856385847073
        ]
      }
    },
    {
      "type": "Feature",
      "properties": {
        "norad_id": 33396,
        "name": "THEOS",
        "group": "resource",
        "lat": 71.26643317909301,
        "lon": -110.1184083168553,
        "alt_km": 817.3191577214957,
        "timestamp": "2025-12-11T07:02:23.390373+00:00",
        "meta_object_name": "THEOS",
        "meta_object_id": "2008-049A",
        "meta_epoch": "2025-12-10T23:46:31.550880",
        "meta_mean_motion": 14.20095984,
        "meta_eccentricity": 0.00011382,
        "meta_inclination": 98.5865,
        "meta_ra_of_asc_node": 43.1313,
        "meta_arg_of_pericenter": 96.5576,
        "meta_mean_anomaly": 263.573,
        "meta_ephemeris_type": 0,
        "meta_classification_type": "U",
        "meta_norad_cat_id": 33396,
        "meta_element_set_no": 999,
        "meta_rev_at_epoch": 89125,
        "meta_bstar": 6.4221791e-05,
        "meta_mean_motion_dot": 9.4e-07,
        "meta_mean_motion_ddot": 0,
        "tle_line1": "1 33396U 08049A   25344.99064295  .00000094  00000+0  64222-4 0  9999",
        "tle_line2": "2 33396  98.5865  43.1313 0001138  96.5576 263.5730 14.20095984891256"
      },
      "geometry": {
        "type": "Point",
        "coordinates": [
          -110.1184083168553,
          71.26643317909301
        ]
      }
    }
  ]
}